STARLINK-3262           
1 50207U 21125BD  24192.97771062  .00000381  00000+0  42010-4 0  9994
2 50207  53.2176  82.7611 0001473  99.7446 260.3713 15.08843579143133
TURKSAT 5B              
1 50212U 21126A   24193.27920622  .00000152  00000+0  00000+0 0  9997
2 50212   0.0651 348.9640 0002489  13.1486  70.0778  1.00271965  9227
INMARSAT 6-F1           
1 50319U 21128A   24193.50216449 -.00000165  00000+0  00000+0 0  9993
2 50319   0.0108 330.0043 0000045 354.6389 229.7694  1.00270690  9181
SHIYAN 12 01 (SY-12 01) 
1 50321U 21129A   24193.67717097 -.00000243  00000+0  00000+0 0  9997
2 50321   1.8463  90.5227 0001963  75.2056 148.1402  1.00443194  9436
SHIYAN 12 02 (SY-12 02) 
1 50322U 21129B   24193.68389434 -.00000344  00000+0  00000+0 0  9991
2 50322   1.8454  90.5328 0001220 152.5490  49.3035  1.00084324  9436
ZY-1 02E                
1 50465U 21131A   24193.56518449  .00000215  00000+0  90010-4 0  9990
2 50465  98.5085 272.0923 0001466  79.8607 280.2744 14.35382822133198
XW-3 (CAS-9)            
1 50466U 21131B   24193.58968671  .00000807  00000+0  27196-3 0  9990
2 50466  98.5285 278.5460 0005132  63.9481 296.2234 14.39710933133515
ONEWEB-0389             
1 50469U 21132A   24193.37269535  .00000071  00000+0  14892-3 0  9996
2 50469  87.9184 146.3965 0001973  94.6781 265.4576 13.17649226125130
ONEWEB-0390             
1 50470U 21132B   24193.37431920  .00000079  00000+0  16952-3 0  9994
2 50470  87.9184 146.4038 0001712  82.7341 277.3985 13.17650286125139
ONEWEB-0391             
1 50471U 21132C   24193.37592747  .00000018  00000+0  13931-4 0  9998
2 50471  87.9192 146.3885 0002112  92.5843 267.5530 13.17649497125138
ONEWEB-0392             
1 50472U 21132D   24193.40501224  .00000133  00000+0  30839-3 0  9996
2 50472  87.9178 146.3796 0002044  98.3264 261.8100 13.17649738125171
ONEWEB-0393             
1 50473U 21132E   24193.37931159  .00000096  00000+0  21476-3 0  9992
2 50473  87.9189 146.3635 0002033  89.4829 270.6535 13.17646942125165
ONEWEB-0394             
1 50474U 21132F   24193.29465016  .00000137  00000+0  31401-3 0  9993
2 50474  87.9145 115.9828 0002073  81.2578 278.8789 13.18686091128567
ONEWEB-0395             
1 50475U 21132G   24193.42191314  .00000040  00000+0  77370-4 0  9995
2 50475  87.8975 161.5593 0001929  91.4256 268.7093 13.11417797123210
ONEWEB-0396             
1 50476U 21132H   24193.28832303  .00000112  00000+0  25137-3 0  9993
2 50476  87.9151 115.9827 0002126  82.0091 278.1282 13.18687815128604
ONEWEB-0397             
1 50477U 21132J   24193.30255077  .00000102  00000+0  22619-3 0  9995
2 50477  87.9151 115.9813 0002293  79.5337 280.6053 13.18685676128583
ONEWEB-0398             
1 50478U 21132K   24193.46599838 -.00000214  00000+0 -63830-3 0  9995
2 50478  87.8967 161.5295 0001602  85.4573 274.6738 13.11415896123115
ONEWEB-0399             
1 50479U 21132L   24193.45242998  .00000382  00000+0  10425-2 0  9992
2 50479  87.8968 161.5496 0002434  87.1566 272.9840 13.11414333123104
ONEWEB-0400             
1 50480U 21132M   24193.28199564  .00000131  00000+0  29938-3 0  9997
2 50480  87.9146 115.9877 0001826  75.1130 285.0204 13.18688272128576
ONEWEB-0401             
1 50481U 21132N   24193.32468740  .00000052  00000+0  99641-4 0  9999
2 50481  87.9146 115.9762 0002324  76.8722 283.2670 13.18686630128583
ONEWEB-0402             
1 50482U 21132P   24193.28988983 -.00000278  00000+0 -73866-3 0  9993
2 50482  87.9146 115.9801 0002807  73.7022 286.4419 13.18685665128609
ONEWEB-0403             
1 50483U 21132Q   24193.31360514  .00000043  00000+0  77025-4 0  9992
2 50483  87.9146 115.9838 0002201  82.2415 277.8967 13.18687532128561
ONEWEB-0404             
1 50484U 21132R   24193.43378789  .00000511  00000+0  14073-2 0  9991
2 50484  87.8980 161.5269 0002199  96.0755 264.0624 13.11418864123193
ONEWEB-0405             
1 50485U 21132S   24193.32941155  .00000050  00000+0  94986-4 0  9994
2 50485  87.9148 115.9702 0002501  78.2715 281.8698 13.18684381128965
ONEWEB-0406             
1 50486U 21132T   24193.31834661  .00000047  00000+0  86683-4 0  9998
2 50486  87.9150 115.9844 0001556  95.9992 264.1318 13.18688182128593
ONEWEB-0407             
1 50487U 21132U   24193.31203211  .00000121  00000+0  27536-3 0  9994
2 50487  87.9145 115.9864 0002206  79.7049 280.4331 13.18687770128538
ONEWEB-0409             
1 50488U 21132V   24193.43210388  .00000460  00000+0  12624-2 0  9998
2 50488  87.8972 161.5217 0001851  95.2962 264.8377 13.11419147123082
ONEWEB-0412             
1 50489U 21132W   24193.30097159  .00000127  00000+0  28937-3 0  9999
2 50489  87.9150 115.9892 0002558  78.0497 282.0921 13.18685582128628
ONEWEB-0413             
1 50490U 21132X   24193.30571386  .00000126  00000+0  28646-3 0  9996
2 50490  87.9150 116.0011 0002430  74.1261 286.0139 13.18687737128562
ONEWEB-0414             
1 50491U 21132Y   24193.29148307  .00000099  00000+0  21960-3 0  9999
2 50491  87.9146 115.9815 0002335  82.0633 278.0764 13.18687230128599
ONEWEB-0417             
1 50492U 21132Z   24193.29939248  .00000139  00000+0  31987-3 0  9997
2 50492  87.9153 115.9845 0001915  86.7992 273.3359 13.18687292128577
