OBJECT_NAME,OBJECT_ID,EPOCH,MEAN_MOTION,ECCENTRICITY,INCLINATION,RA_OF_ASC_NODE,ARG_OF_PERICENTER,MEAN_ANOMALY,EPHEMERIS_TYPE,CLASSIFICATION_TYPE,NORAD_CAT_ID,ELEMENT_SET_NO,REV_AT_EPOCH,BSTAR,MEAN_MOTION_DOT,MEAN_MOTION_DDOT
STARLINK-3262,2021-125BD,2024-07-10T23:27:54.197568,15.08843579,.0001473,53.2176,82.7611,99.7446,260.3713,0,U,50207,999,14313,.4201E-4,.381E-5,0
TURKSAT 5B,2021-126A,2024-07-11T06:42:03.417408,1.00271965,.0002489,0.0651,348.9640,13.1486,70.0778,0,U,50212,999,922,0,.152E-5,0
INMARSAT 6-F1,2021-128A,2024-07-11T12:03:07.011936,1.00270690,.0000045,0.0108,330.0043,354.6389,229.7694,0,U,50319,999,918,0,-.165E-5,0
SHIYAN 12 01 (SY-12 01),2021-129A,2024-07-11T16:15:07.571808,1.00443194,.0001963,1.8463,90.5227,75.2056,148.1402,0,U,50321,999,943,0,-.243E-5,0
SHIYAN 12 02 (SY-12 02),2021-129B,2024-07-11T16:24:48.470976,1.00084324,.000122,1.8454,90.5328,152.5490,49.3035,0,U,50322,999,943,0,-.344E-5,0
ZY-1 02E,2021-131A,2024-07-11T13:33:51.939936,14.35382822,.0001466,98.5085,272.0923,79.8607,280.2744,0,U,50465,999,13319,.9001E-4,.215E-5,0
XW-3 (CAS-9),2021-131B,2024-07-11T14:09:08.931744,14.39710933,.0005132,98.5285,278.5460,63.9481,296.2234,0,U,50466,999,13351,.27196E-3,.807E-5,0
ONEWEB-0389,2021-132A,2024-07-11T08:56:40.878240,13.17649226,.0001973,87.9184,146.3965,94.6781,265.4576,0,U,50469,999,12513,.14892E-3,.71E-6,0
ONEWEB-0390,2021-132B,2024-07-11T08:59:01.178880,13.17650286,.0001712,87.9184,146.4038,82.7341,277.3985,0,U,50470,999,12513,.16952E-3,.79E-6,0
ONEWEB-0391,2021-132C,2024-07-11T09:01:20.133408,13.17649497,.0002112,87.9192,146.3885,92.5843,267.5530,0,U,50471,999,12513,.13931E-4,.18E-6,0
ONEWEB-0392,2021-132D,2024-07-11T09:43:13.057536,13.17649738,.0002044,87.9178,146.3796,98.3264,261.8100,0,U,50472,999,12517,.30839E-3,.133E-5,0
ONEWEB-0393,2021-132E,2024-07-11T09:06:12.521376,13.17646942,.0002033,87.9189,146.3635,89.4829,270.6535,0,U,50473,999,12516,.21476E-3,.96E-6,0
ONEWEB-0394,2021-132F,2024-07-11T07:04:17.773824,13.18686091,.0002073,87.9145,115.9828,81.2578,278.8789,0,U,50474,999,12856,.31401E-3,.137E-5,0
ONEWEB-0395,2021-132G,2024-07-11T10:07:33.295296,13.11417797,.0001929,87.8975,161.5593,91.4256,268.7093,0,U,50475,999,12321,.7737E-4,.4E-6,0
ONEWEB-0396,2021-132H,2024-07-11T06:55:11.109792,13.18687815,.0002126,87.9151,115.9827,82.0091,278.1282,0,U,50476,999,12860,.25137E-3,.112E-5,0
ONEWEB-0397,2021-132J,2024-07-11T07:15:40.386528,13.18685676,.0002293,87.9151,115.9813,79.5337,280.6053,0,U,50477,999,12858,.22619E-3,.102E-5,0
ONEWEB-0398,2021-132K,2024-07-11T11:11:02.260032,13.11415896,.0001602,87.8967,161.5295,85.4573,274.6738,0,U,50478,999,12311,-.6383E-3,-.214E-5,0
ONEWEB-0399,2021-132L,2024-07-11T10:51:29.950272,13.11414333,.0002434,87.8968,161.5496,87.1566,272.9840,0,U,50479,999,12310,.10425E-2,.382E-5,0
ONEWEB-0400,2021-132M,2024-07-11T06:46:04.423296,13.18688272,.0001826,87.9146,115.9877,75.1130,285.0204,0,U,50480,999,12857,.29938E-3,.131E-5,0
ONEWEB-0401,2021-132N,2024-07-11T07:47:32.991360,13.18686630,.0002324,87.9146,115.9762,76.8722,283.2670,0,U,50481,999,12858,.99641E-4,.52E-6,0
ONEWEB-0402,2021-132P,2024-07-11T06:57:26.481312,13.18685665,.0002807,87.9146,115.9801,73.7022,286.4419,0,U,50482,999,12860,-.73866E-3,-.278E-5,0
ONEWEB-0403,2021-132Q,2024-07-11T07:31:35.484096,13.18687532,.0002201,87.9146,115.9838,82.2415,277.8967,0,U,50483,999,12856,.77025E-4,.43E-6,0
ONEWEB-0404,2021-132R,2024-07-11T10:24:39.273696,13.11418864,.0002199,87.8980,161.5269,96.0755,264.0624,0,U,50484,999,12319,.14073E-2,.511E-5,0
ONEWEB-0405,2021-132S,2024-07-11T07:54:21.157920,13.18684381,.0002501,87.9148,115.9702,78.2715,281.8698,0,U,50485,999,12896,.94986E-4,.5E-6,0
ONEWEB-0406,2021-132T,2024-07-11T07:38:25.147104,13.18688182,.0001556,87.9150,115.9844,95.9992,264.1318,0,U,50486,999,12859,.86683E-4,.47E-6,0
ONEWEB-0407,2021-132U,2024-07-11T07:29:19.574304,13.18687770,.0002206,87.9145,115.9864,79.7049,280.4331,0,U,50487,999,12853,.27536E-3,.121E-5,0
ONEWEB-0409,2021-132V,2024-07-11T10:22:13.775232,13.11419147,.0001851,87.8972,161.5217,95.2962,264.8377,0,U,50488,999,12308,.12624E-2,.46E-5,0
ONEWEB-0412,2021-132W,2024-07-11T07:13:23.945376,13.18685582,.0002558,87.9150,115.9892,78.0497,282.0921,0,U,50489,999,12862,.28937E-3,.127E-5,0
ONEWEB-0413,2021-132X,2024-07-11T07:20:13.677504,13.18687737,.000243,87.9150,116.0011,74.1261,286.0139,0,U,50490,999,12856,.28646E-3,.126E-5,0
ONEWEB-0414,2021-132Y,2024-07-11T06:59:44.137248,13.18687230,.0002335,87.9146,115.9815,82.0633,278.0764,0,U,50491,999,12859,.2196E-3,.99E-6,0
ONEWEB-0417,2021-132Z,2024-07-11T07:11:07.510272,13.18687292,.0001915,87.9153,115.9845,86.7992,273.3359,0,U,50492,999,12857,.31987E-3,.139E-5,0
